CCSDS_OMM_VERS = 2.0
CREATION_DATE  = 
ORIGINATOR     = 

OBJECT_NAME    = STARLINK-37059
OBJECT_ID      = 2026-042V
CENTER_NAME    = EARTH
REF_FRAME      = TEME
TIME_SYSTEM    = UTC
MEAN_ELEMENT_THEORY = SGP/SGP4

EPOCH          = 2026-03-31T20:00:01.999008
MEAN_MOTION    = 15.75227406
ECCENTRICITY   = .0001024
INCLINATION    = 53.1586
RA_OF_ASC_NODE = 83.7813
ARG_OF_PERICENTER = 84.3971
MEAN_ANOMALY   = 342.2094

EPHEMERIS_TYPE = 0
CLASSIFICATION_TYPE = U
NORAD_CAT_ID   = 68088
ELEMENT_SET_NO = 999
REV_AT_EPOCH   = 561
BSTAR          = .12839E-3
MEAN_MOTION_DOT = .19076E-3
MEAN_MOTION_DDOT = 0

CCSDS_OMM_VERS = 2.0
CREATION_DATE  = 
ORIGINATOR     = 

OBJECT_NAME    = STARLINK-37004
OBJECT_ID      = 2026-042W
CENTER_NAME    = EARTH
REF_FRAME      = TEME
TIME_SYSTEM    = UTC
MEAN_ELEMENT_THEORY = SGP/SGP4

EPOCH          = 2026-03-31T16:46:58.669824
MEAN_MOTION    = 15.75305322
ECCENTRICITY   = .0001129
INCLINATION    = 53.1590
RA_OF_ASC_NODE = 84.5013
ARG_OF_PERICENTER = 72.4273
MEAN_ANOMALY   = 287.6870

EPHEMERIS_TYPE = 0
CLASSIFICATION_TYPE = U
NORAD_CAT_ID   = 68089
ELEMENT_SET_NO = 999
REV_AT_EPOCH   = 556
BSTAR          = .17216E-2
MEAN_MOTION_DOT = .272743E-2
MEAN_MOTION_DDOT = 0

CCSDS_OMM_VERS = 2.0
CREATION_DATE  = 
ORIGINATOR     = 

OBJECT_NAME    = STARLINK-36320
OBJECT_ID      = 2026-042X
CENTER_NAME    = EARTH
REF_FRAME      = TEME
TIME_SYSTEM    = UTC
MEAN_ELEMENT_THEORY = SGP/SGP4

EPOCH          = 2026-03-27T03:41:33.349344
MEAN_MOTION    = 15.75432358
ECCENTRICITY   = .00027632
INCLINATION    = 53.1593
RA_OF_ASC_NODE = 107.3571
ARG_OF_PERICENTER = 139.4736
MEAN_ANOMALY   = 220.6491

EPHEMERIS_TYPE = 0
CLASSIFICATION_TYPE = U
NORAD_CAT_ID   = 68090
ELEMENT_SET_NO = 999
REV_AT_EPOCH   = 484
BSTAR          = .2325439E-2
MEAN_MOTION_DOT = .375248E-2
MEAN_MOTION_DDOT = 0

CCSDS_OMM_VERS = 2.0
CREATION_DATE  = 
ORIGINATOR     = 

OBJECT_NAME    = STARLINK-36324
OBJECT_ID      = 2026-042Y
CENTER_NAME    = EARTH
REF_FRAME      = TEME
TIME_SYSTEM    = UTC
MEAN_ELEMENT_THEORY = SGP/SGP4

EPOCH          = 2026-03-31T06:47:06.950976
MEAN_MOTION    = 15.75283361
ECCENTRICITY   = .0001492
INCLINATION    = 53.1584
RA_OF_ASC_NODE = 86.8925
ARG_OF_PERICENTER = 111.5875
MEAN_ANOMALY   = 248.5304

EPHEMERIS_TYPE = 0
CLASSIFICATION_TYPE = U
NORAD_CAT_ID   = 68091
ELEMENT_SET_NO = 999
REV_AT_EPOCH   = 549
BSTAR          = .99889E-3
MEAN_MOTION_DOT = .155628E-2
MEAN_MOTION_DDOT = 0

CCSDS_OMM_VERS = 2.0
CREATION_DATE  = 
ORIGINATOR     = 

OBJECT_NAME    = STARLINK-36896
OBJECT_ID      = 2026-042Z
CENTER_NAME    = EARTH
REF_FRAME      = TEME
TIME_SYSTEM    = UTC
MEAN_ELEMENT_THEORY = SGP/SGP4

EPOCH          = 2026-03-31T06:33:34.473888
MEAN_MOTION    = 15.75284606
ECCENTRICITY   = .0001064
INCLINATION    = 53.1582
RA_OF_ASC_NODE = 86.8304
ARG_OF_PERICENTER = 44.7081
MEAN_ANOMALY   = 315.4025

EPHEMERIS_TYPE = 0
CLASSIFICATION_TYPE = U
NORAD_CAT_ID   = 68092
ELEMENT_SET_NO = 999
REV_AT_EPOCH   = 548
BSTAR          = .14646E-2
MEAN_MOTION_DOT = .230557E-2
MEAN_MOTION_DDOT = 0

CCSDS_OMM_VERS = 2.0
CREATION_DATE  = 
ORIGINATOR     = 

OBJECT_NAME    = STARLINK-36251
OBJECT_ID      = 2026-042AA
CENTER_NAME    = EARTH
REF_FRAME      = TEME
TIME_SYSTEM    = UTC
MEAN_ELEMENT_THEORY = SGP/SGP4

EPOCH          = 2026-03-31T11:43:02.891424
MEAN_MOTION    = 15.80773442
ECCENTRICITY   = .0002767
INCLINATION    = 53.1569
RA_OF_ASC_NODE = 85.3098
ARG_OF_PERICENTER = 45.4029
MEAN_ANOMALY   = 314.7219

EPHEMERIS_TYPE = 0
CLASSIFICATION_TYPE = U
NORAD_CAT_ID   = 68093
ELEMENT_SET_NO = 999
REV_AT_EPOCH   = 552
BSTAR          = .90315E-3
MEAN_MOTION_DOT = .180515E-2
MEAN_MOTION_DDOT = 0

CCSDS_OMM_VERS = 2.0
CREATION_DATE  = 
ORIGINATOR     = 

OBJECT_NAME    = STARLINK-36787
OBJECT_ID      = 2026-042AB
CENTER_NAME    = EARTH
REF_FRAME      = TEME
TIME_SYSTEM    = UTC
MEAN_ELEMENT_THEORY = SGP/SGP4

EPOCH          = 2026-03-31T09:43:18.680448
MEAN_MOTION    = 15.75271700
ECCENTRICITY   = .0001529
INCLINATION    = 53.1584
RA_OF_ASC_NODE = 86.2316
ARG_OF_PERICENTER = 83.2976
MEAN_ANOMALY   = 276.8219

EPHEMERIS_TYPE = 0
CLASSIFICATION_TYPE = U
NORAD_CAT_ID   = 68094
ELEMENT_SET_NO = 999
REV_AT_EPOCH   = 550
BSTAR          = .14093599E-2
MEAN_MOTION_DOT = .221464E-2
MEAN_MOTION_DDOT = 0

CCSDS_OMM_VERS = 2.0
CREATION_DATE  = 
ORIGINATOR     = 

OBJECT_NAME    = STARLINK-36790
OBJECT_ID      = 2026-042AC
CENTER_NAME    = EARTH
REF_FRAME      = TEME
TIME_SYSTEM    = UTC
MEAN_ELEMENT_THEORY = SGP/SGP4

EPOCH          = 2026-03-31T16:53:59.239104
MEAN_MOTION    = 15.75282404
ECCENTRICITY   = .0001167
INCLINATION    = 53.1588
RA_OF_ASC_NODE = 84.5335
ARG_OF_PERICENTER = 85.7504
MEAN_ANOMALY   = 274.3650

EPHEMERIS_TYPE = 0
CLASSIFICATION_TYPE = U
NORAD_CAT_ID   = 68095
ELEMENT_SET_NO = 999
REV_AT_EPOCH   = 555
BSTAR          = .15691E-2
MEAN_MOTION_DOT = .247527E-2
MEAN_MOTION_DDOT = 0

CCSDS_OMM_VERS = 2.0
CREATION_DATE  = 
ORIGINATOR     = 

OBJECT_NAME    = STARLINK-36328
OBJECT_ID      = 2026-042AD
CENTER_NAME    = EARTH
REF_FRAME      = TEME
TIME_SYSTEM    = UTC
MEAN_ELEMENT_THEORY = SGP/SGP4

EPOCH          = 2026-03-31T20:00:01.999008
MEAN_MOTION    = 15.75266675
ECCENTRICITY   = .0001261
INCLINATION    = 53.1584
RA_OF_ASC_NODE = 83.7311
ARG_OF_PERICENTER = 118.3856
MEAN_ANOMALY   = 332.0987

EPHEMERIS_TYPE = 0
CLASSIFICATION_TYPE = U
NORAD_CAT_ID   = 68096
ELEMENT_SET_NO = 999
REV_AT_EPOCH   = 560
BSTAR          = -.46328E-3
MEAN_MOTION_DOT = -.71146E-3
MEAN_MOTION_DDOT = 0

CCSDS_OMM_VERS = 2.0
CREATION_DATE  = 
ORIGINATOR     = 

OBJECT_NAME    = STARLINK-36853
OBJECT_ID      = 2026-042AE
CENTER_NAME    = EARTH
REF_FRAME      = TEME
TIME_SYSTEM    = UTC
MEAN_ELEMENT_THEORY = SGP/SGP4

EPOCH          = 2026-03-31T20:00:01.999008
MEAN_MOTION    = 15.75279617
ECCENTRICITY   = .0001279
INCLINATION    = 53.1584
RA_OF_ASC_NODE = 83.6788
ARG_OF_PERICENTER = 95.9083
MEAN_ANOMALY   = 20.2156

EPHEMERIS_TYPE = 0
CLASSIFICATION_TYPE = U
NORAD_CAT_ID   = 68097
ELEMENT_SET_NO = 999
REV_AT_EPOCH   = 561
BSTAR          = .5083E-3
MEAN_MOTION_DOT = .78138E-3
MEAN_MOTION_DDOT = 0

CCSDS_OMM_VERS = 2.0
CREATION_DATE  = 
ORIGINATOR     = 

OBJECT_NAME    = GLOBAL-34
OBJECT_ID      = 2026-043A
CENTER_NAME    = EARTH
REF_FRAME      = TEME
TIME_SYSTEM    = UTC
MEAN_ELEMENT_THEORY = SGP/SGP4

EPOCH          = 2026-03-31T21:44:30.434784
MEAN_MOTION    = 15.31962885
ECCENTRICITY   = .0003615
INCLINATION    = 42.0213
RA_OF_ASC_NODE = 307.2326
ARG_OF_PERICENTER = 85.7453
MEAN_ANOMALY   = 274.3798

EPHEMERIS_TYPE = 0
CLASSIFICATION_TYPE = U
NORAD_CAT_ID   = 68098
ELEMENT_SET_NO = 999
REV_AT_EPOCH   = 397
BSTAR          = .47741E-3
MEAN_MOTION_DOT = .14832E-3
MEAN_MOTION_DDOT = 0

CCSDS_OMM_VERS = 2.0
CREATION_DATE  = 
ORIGINATOR     = 

OBJECT_NAME    = STARLINK-37022
OBJECT_ID      = 2026-044A
CENTER_NAME    = EARTH
REF_FRAME      = TEME
TIME_SYSTEM    = UTC
MEAN_ELEMENT_THEORY = SGP/SGP4

EPOCH          = 2026-03-31T20:00:01.999008
MEAN_MOTION    = 15.60808737
ECCENTRICITY   = .000153
INCLINATION    = 97.2850
RA_OF_ASC_NODE = 52.0193
ARG_OF_PERICENTER = 93.2830
MEAN_ANOMALY   = 242.9567

EPHEMERIS_TYPE = 0
CLASSIFICATION_TYPE = U
NORAD_CAT_ID   = 68101
ELEMENT_SET_NO = 999
REV_AT_EPOCH   = 496
BSTAR          = -.25758E-1
MEAN_MOTION_DOT = -.1896665E-1
MEAN_MOTION_DDOT = 0

