STARLINK-37059          
1 68088U 26042V   26090.83335647  .00019076  00000+0  12839-3 0  9998
2 68088  53.1586  83.7813 0001024  84.3971 342.2094 15.75227406  5614
STARLINK-37004          
1 68089U 26042W   26090.69929016  .00272743  00000+0  17216-2 0  9997
2 68089  53.1590  84.5013 0001129  72.4273 287.6870 15.75305322  5562
STARLINK-36320          
1 68090U 26042X   26086.15385821  .00375248  00000+0  23254-2 0  9998
2 68090  53.1593 107.3571 0002763 139.4736 220.6491 15.75432358  4849
STARLINK-36324          
1 68091U 26042Y   26090.28271934  .00155628  00000+0  99889-3 0  9993
2 68091  53.1584  86.8925 0001492 111.5875 248.5304 15.75283361  5499
STARLINK-36896          
1 68092U 26042Z   26090.27331567  .00230557  00000+0  14646-2 0  9994
2 68092  53.1582  86.8304 0001064  44.7081 315.4025 15.75284606  5486
STARLINK-36251          
1 68093U 26042AA  26090.48822791  .00180515  00000+0  90315-3 0  9998
2 68093  53.1569  85.3098 0002767  45.4029 314.7219 15.80773442  5526
STARLINK-36787          
1 68094U 26042AB  26090.40507732  .00221464  00000+0  14094-2 0  9994
2 68094  53.1584  86.2316 0001529  83.2976 276.8219 15.75271700  5503
STARLINK-36790          
1 68095U 26042AC  26090.70415786  .00247527  00000+0  15691-2 0  9997
2 68095  53.1588  84.5335 0001167  85.7504 274.3650 15.75282404  5552
STARLINK-36328          
1 68096U 26042AD  26090.83335647 -.00071146  00000+0 -46328-3 0  9995
2 68096  53.1584  83.7311 0001261 118.3856 332.0987 15.75266675  5605
STARLINK-36853          
1 68097U 26042AE  26090.83335647  .00078138  00000+0  50830-3 0  9995
2 68097  53.1584  83.6788 0001279  95.9083  20.2156 15.75279617  5619
GLOBAL-34               
1 68098U 26043A   26090.90590781  .00014832  00000+0  47741-3 0  9995
2 68098  42.0213 307.2326 0003615  85.7453 274.3798 15.31962885  3972
STARLINK-37022          
1 68101U 26044A   26090.83335647 -.01896665  00000+0 -25758-1 0  9998
2 68101  97.2850  52.0193 0001530  93.2830 242.9567 15.60808737  4962
